NORAD_CAT_ID,OBJECT_NAME,OBJECT_TYPE,EPOCH,MEAN_MOTION,ECCENTRICITY,INCLINATION,RA_OF_ASC_NODE,ARG_OF_PERICENTER,MEAN_ANOMALY,BSTAR,MEAN_MOTION_DOT,MEAN_MOTION_DDOT,TLE_LINE0,TLE_LINE1,TLE_LINE2,SEMIMAJOR_AXIS,PERIOD,APOGEE,PERIGEE,DECAYED
53388.0,STARLINK-4522,PAYLOAD,2022-09-26 22:00:00,15.0887139,0.0001973,53.2166,19.4693,40.0772,31.6647,-0.0036663,-0.00058217,0.0,0 STARLINK-4522,1 53388U 22097A   22269.91667824 -.00058217  00000-0 -36663-2 0  9992,2 53388  53.2166  19.4693 0001973  40.0772  31.6647 15.08871390  1307,6917.784000000002,95.436,541.014,538.285,0.0
53388.0,STARLINK-4522,PAYLOAD,2022-09-27 14:00:01,15.08857507,0.0002009999999999,53.2172,16.4865,43.1167,51.7993,-0.0022359,-0.00035714,0.0,0 STARLINK-4522,1 53388U 22097A   22270.58334491 -.00035714  00000-0 -22359-2 0  9992,2 53388  53.2172  16.4865 0002010  43.1167  51.7993 15.08857507  1308,6917.8269999999975,95.436,541.082,538.3009999999998,0.0
53388.0,STARLINK-4522,PAYLOAD,2022-09-27 22:00:01,15.08863253,0.0001975,53.2173,14.9896,39.6834,66.9191,-0.0010152,-0.00016419,0.0,0 STARLINK-4522,1 53388U 22097A   22270.91668981 -.00016419  00000-0 -10152-2 0  9992,2 53388  53.2173  14.9896 0001975  39.6834  66.9191 15.08863253  7989,6917.809,95.436,541.0409999999998,538.308,0.0
53388.0,STARLINK-4522,PAYLOAD,2022-09-28 14:00:01,15.08883072,0.000198,53.2176,11.9975,38.7829,90.9979,-0.004337,-0.00068736,0.0,0 STARLINK-4522,1 53388U 22097A   22271.58334491 -.00068736  00000-0 -43370-2 0  9999,2 53388  53.2176  11.9975 0001980  38.7829  90.9979 15.08883072  8081,6917.749,95.435,540.9830000000002,538.244,0.0
53388.0,STARLINK-4522,PAYLOAD,2022-09-28 22:00:00,15.08858876,0.0001925,53.2176,10.5005,36.771,104.6225,-0.0059114,-0.00093203,0.0,0 STARLINK-4522,1 53388U 22097A   22271.91667824 -.00093203  00000-0 -59114-2 0  9995,2 53388  53.2176  10.5005 0001925  36.7710 104.6225 15.08858876  1305,6917.823,95.436,541.019,538.356,0.0
53388.0,STARLINK-4522,PAYLOAD,2022-09-29 14:00:01,15.08797197,0.0002045999999999,53.2169,7.5087,39.7421,124.7646,0.00068663,0.00010644,0.0,0 STARLINK-4522,1 53388U 22097A   22272.58334491  .00010644  00000-0  68663-3 0  9996,2 53388  53.2169   7.5087 0002046  39.7421 124.7646 15.08797197  1308,6918.011,95.44,541.2919999999998,538.461,0.0
53388.0,STARLINK-4522,PAYLOAD,2022-09-29 22:00:00,15.08829395,0.0001976999999999,53.2156,6.0116,39.5793,136.4739,-0.0012165,-0.00019591,0.0,0 STARLINK-4522,1 53388U 22097A   22272.91667824 -.00019591  00000-0 -12165-2 0  9999,2 53388  53.2156   6.0116 0001977  39.5793 136.4739 15.08829395  1302,6917.913000000001,95.438,541.145,538.41,0.0
53388.0,STARLINK-4522,PAYLOAD,2022-09-30 06:00:02,15.08858383,0.0001846,53.2179,4.5143,45.0752,142.664,-0.0025736,-0.00041035,0.0,0 STARLINK-4522,1 53388U 22097A   22273.25002315 -.00041035  00000-0 -25736-2 0  9991,2 53388  53.2179   4.5143 0001846  45.0752 142.6640 15.08858383  8331,6917.824000000001,95.436,540.966,538.4119999999998,0.0
53388.0,STARLINK-4522,PAYLOAD,2022-09-30 14:00:01,15.08807436,0.0001975,53.2176,3.0197,36.5421,162.7431,0.00013081,1.793e-05,0.0,0 STARLINK-4522,1 53388U 22097A   22273.58334491  .00001793  00000-0  13081-3 0  9996,2 53388  53.2176   3.0197 0001975  36.5421 162.7431 15.08807436  1306,6917.98,95.44,541.211,538.479,0.0
53388.0,STARLINK-4522,PAYLOAD,2022-09-30 22:00:00,15.08832645,0.0001851,53.2174,1.5223,36.0889,174.7517,-0.00098991,-0.00016005,0.0,0 STARLINK-4522,1 53388U 22097A   22273.91667824 -.00016005  00000-0 -98991-3 0  9999,2 53388  53.2174   1.5223 0001851  36.0889 174.7517 15.08832645  1301,6917.903,95.438,541.048,538.487,0.0
53388.0,STARLINK-4522,PAYLOAD,2022-10-01 06:00:00,15.08829467,0.0001737,53.2175,0.0254,41.4903,180.9249,0.0017660999999999,0.00027923,0.0,0 STARLINK-4522,1 53388U 22097A   22274.25001157  .00027923  00000-0  17661-2 0  9991,2 53388  53.2175   0.0254 0001737  41.4903 180.9249 15.08829467  8485,6917.913000000001,95.438,540.979,538.576,0.0
53388.0,STARLINK-4522,PAYLOAD,2022-10-01 14:00:01,15.08833599,0.0001994,53.2173,358.5307,36.8108,197.2019,0.0016687,0.00026365,0.0,0 STARLINK-4522,1 53388U 22097A   22274.58334491  .00026365  00000-0  16687-2 0  9993,2 53388  53.2173 358.5307 0001994  36.8108 197.2019 15.08833599  1304,6917.9,95.438,541.144,538.386,0.0
53388.0,STARLINK-4522,PAYLOAD,2022-10-01 22:00:00,15.08870808,0.0001889999999999,53.2169,357.0331,38.7171,206.8918,-0.004194,-0.00066477,0.0,0 STARLINK-4522,1 53388U 22097A   22274.91667824 -.00066477  00000-0 -41940-2 0  9999,2 53388  53.2169 357.0331 0001890  38.7171 206.8918 15.08870808  8582,6917.786,95.436,540.9590000000002,538.344,0.0
53388.0,STARLINK-4522,PAYLOAD,2022-10-02 14:00:01,15.08810463,0.0002026999999999,53.2168,354.0416,37.7573,231.0404,0.0022296,0.00035346,0.0,0 STARLINK-4522,1 53388U 22097A   22275.58334491  .00035346  00000-0  22296-2 0  9996,2 53388  53.2168 354.0416 0002027  37.7573 231.0404 15.08810463  8682,6917.971,95.439,541.238,538.433,0.0
53388.0,STARLINK-4522,PAYLOAD,2022-10-02 22:00:00,15.08853004,0.0001915,53.2166,352.5439,38.5962,241.7792,-0.00063391,-0.00010366,0.0,0 STARLINK-4522,1 53388U 22097A   22275.91667824 -.00010366  00000-0 -63391-3 0  9991,2 53388  53.2166 352.5439 0001915  38.5962 241.7792 15.08853004  1302,6917.840999999999,95.437,541.03,538.381,0.0
53388.0,STARLINK-4522,PAYLOAD,2022-10-03 14:00:01,15.08875542,0.0002083,53.2166,349.5523,37.8268,265.7881,-6.3059e-06,-3.89e-06,0.0,0 STARLINK-4522,1 53388U 22097A   22276.58334491 -.00000389  00000-0 -63059-5 0  9993,2 53388  53.2166 349.5523 0002083  37.8268 265.7881 15.08875542  1306,6917.772,95.435,541.078,538.196,0.0
53388.0,STARLINK-4522,PAYLOAD,2022-10-03 22:00:00,15.08885555,0.0001981,53.2165,348.0544,37.9499,277.3032,-0.0042139,-0.00066815,0.0,0 STARLINK-4522,1 53388U 22097A   22276.91667824 -.00066815  00000-0 -42139-2 0  9998,2 53388  53.2165 348.0544 0001981  37.9499 277.3032 15.08885555  8898,6917.741,95.435,540.977,538.236,0.0
53388.0,STARLINK-4522,PAYLOAD,2022-10-04 14:00:01,15.08836909,0.0002063,53.2168,345.0629,33.8254,304.6572,-0.001271,-0.00020458,0.0,0 STARLINK-4522,1 53388U 22097A   22277.58334491 -.00020458  00000-0 -12710-2 0  9998,2 53388  53.2168 345.0629 0002063  33.8254 304.6572 15.08836909  1309,6917.89,95.438,541.182,538.328,0.0
53388.0,STARLINK-4522,PAYLOAD,2022-10-04 16:00:00,15.08821364,0.000205,53.2166,344.6888,31.3416,40.043,0.0002484999999999,3.667e-05,0.0,0 STARLINK-4522,1 53388U 22097A   22277.66667824  .00003667  00000-0  24850-3 0  9996,2 53388  53.2166 344.6888 0002050  31.3416  40.0430 15.08821364  9006,6917.937,95.439,541.221,538.384,0.0
53388.0,STARLINK-4522,PAYLOAD,2022-10-04 22:00:00,15.08811397,0.0001928,53.2168,343.5652,32.0912,317.9724,0.00039372,5.979e-05,0.0,0 STARLINK-4522,1 53388U 22097A   22277.91667824  .00005979  00000-0  39372-3 0  9997,2 53388  53.2168 343.5652 0001928  32.0912 317.9724 15.08811397  1309,6917.968000000003,95.439,541.1669999999998,538.499,0.0
53388.0,STARLINK-4522,PAYLOAD,2022-10-05 14:00:01,15.08801297,0.0002174,53.2171,340.5739,34.2345,339.0415,0.0020971999999999,0.00033212,0.0,0 STARLINK-4522,1 53388U 22097A   22278.58335648  .00033212  00000-0  20972-2 0  9993,2 53388  53.2171 340.5739 0002174  34.2345 339.0415 15.08801297  1304,6917.999,95.44,541.368,538.36,0.0
53388.0,STARLINK-4522,PAYLOAD,2022-10-05 22:00:00,15.08810676,0.0002008999999999,53.2172,339.0761,34.7167,350.0655,0.00029482,4.403e-05,0.0,0 STARLINK-4522,1 53388U 22097A   22278.91667824  .00004403  00000-0  29482-3 0  9990,2 53388  53.2172 339.0761 0002009  34.7167 350.0655 15.08810676  1307,6917.97,95.439,541.225,538.445,0.0
53388.0,STARLINK-4522,PAYLOAD,2022-10-06 14:00:01,15.08830978,0.000222,53.2173,336.0851,32.5956,15.3389,0.0023729,0.0003767,0.0,0 STARLINK-4522,1 53388U 22097A   22279.58334491  .00037670  00000-0  23729-2 0  9994,2 53388  53.2173 336.0851 0002220  32.5956  15.3389 15.08830978  1304,6917.908,95.438,541.309,538.237,0.0
53388.0,STARLINK-4522,PAYLOAD,2022-10-06 22:42:55,15.08830161,0.0002048,53.2175,334.4530000000001,34.1953,187.2613,0.0019687,0.00031175,0.0,0 STARLINK-4522,1 53388U 22097A   22279.94646991  .00031175  00000-0  19687-2 0  9997,2 53388  53.2175 334.4530 0002048  34.1953 187.2613 15.08830161  1308,6917.91,95.438,541.192,538.359,0.0
53388.0,STARLINK-4522,PAYLOAD,2022-10-07 00:00:00,15.08827088,0.0002008999999999,53.2174,334.2066,34.1752,118.2741,0.0025640999999999,0.00040742,0.0,0 STARLINK-4522,1 53388U 22097A   22280.00001157  .00040742  00000-0  25641-2 0  9992,2 53388  53.2174 334.2066 0002009  34.1752 118.2741 15.08827088  9356,6917.92,95.438,541.175,538.395,0.0
53388.0,STARLINK-4522,PAYLOAD,2022-10-07 14:00:01,15.08830176,0.0002217,53.2172,331.596,32.409,50.3531,0.00096613,0.00015117,0.0,0 STARLINK-4522,1 53388U 22097A   22280.58334491  .00015117  00000-0  96613-3 0  9991,2 53388  53.2172 331.5960 0002217  32.4090  50.3531 15.08830176  9449,6917.91,95.438,541.309,538.242,0.0
53388.0,STARLINK-4522,PAYLOAD,2022-10-07 22:00:00,15.08817861,0.0001954,53.2172,330.098,32.6473,61.714,0.00092274,0.00014419,0.0,0 STARLINK-4522,1 53388U 22097A   22280.91667824  .00014419  00000-0  92274-3 0  9990,2 53388  53.2172 330.0980 0001954  32.6473  61.7140 15.08817861  1304,6917.948,95.439,541.165,538.461,0.0
53388.0,STARLINK-4522,PAYLOAD,2022-10-08 06:00:00,15.08723936,0.0002153,53.2172,328.5813,34.2678,71.683,0.010998,0.00178651,0.0,0 STARLINK-4522,1 53388U 22097A   22281.25001157  .00178651  00000-0  10998-1 0  9999,2 53388  53.2172 328.5813 0002153  34.2678  71.6830 15.08723936  9547,6918.235,95.445,541.59,538.611,0.0
53388.0,STARLINK-4522,PAYLOAD,2022-10-08 14:00:01,15.08795434,0.0002123,53.2167,327.107,28.1098,89.4103,0.004227,0.00067548,0.0,0 STARLINK-4522,1 53388U 22097A   22281.58334491  .00067548  00000-0  42270-2 0  9996,2 53388  53.2167 327.1070 0002123  28.1098  89.4103 15.08795434  1304,6918.017,95.44,541.35,538.413,0.0
